{
 "generated_at": "2026-07-12T07:29:19Z",
 "sources": [
  {
   "name": "CelesTrak",
   "url": "https://celestrak.org/NORAD/elements/",
   "license": "frei verfügbar; Attribution. Ursprünglich USSPACECOM/Space-Track."
  },
  {
   "name": "GCAT (J. McDowell, planet4589.org)",
   "url": "https://planet4589.org/space/gcat/",
   "license": "CC-BY 4.0"
  }
 ],
 "satellites": [
  {
   "norad": 63255,
   "name": "ICEYE-X50",
   "intl": "2025-052AX",
   "group": "sar",
   "gcat": {
    "class": "B",
    "category": "IMG-R",
    "owner": "ICEYE",
    "state": "FI"
   },
   "omm": {
    "OBJECT_NAME": "ICEYE-X50",
    "OBJECT_ID": "2025-052AX",
    "EPOCH": "2026-07-11T23:36:58.343040",
    "MEAN_MOTION": 14.95358457,
    "ECCENTRICITY": 0.00033967,
    "INCLINATION": 97.6863,
    "RA_OF_ASC_NODE": 84.4003,
    "ARG_OF_PERICENTER": 108.721,
    "MEAN_ANOMALY": 251.438,
    "EPHEMERIS_TYPE": 0,
    "CLASSIFICATION_TYPE": "U",
    "NORAD_CAT_ID": 63255,
    "ELEMENT_SET_NO": 999,
    "REV_AT_EPOCH": 7235,
    "BSTAR": 0.00012565691,
    "MEAN_MOTION_DOT": 0.0000133,
    "MEAN_MOTION_DDOT": 0
   }
  },
  {
   "norad": 63257,
   "name": "ICEYE-X51",
   "intl": "2025-052AZ",
   "group": "sar",
   "gcat": {
    "class": "B",
    "category": "IMG-R",
    "owner": "ICEUS",
    "state": "US"
   },
   "omm": {
    "OBJECT_NAME": "ICEYE-X51",
    "OBJECT_ID": "2025-052AZ",
    "EPOCH": "2026-07-11T14:12:31.386816",
    "MEAN_MOTION": 15.0089344,
    "ECCENTRICITY": 0.00020733,
    "INCLINATION": 97.7607,
    "RA_OF_ASC_NODE": 87.6429,
    "ARG_OF_PERICENTER": 68.4125,
    "MEAN_ANOMALY": 291.7319,
    "EPHEMERIS_TYPE": 0,
    "CLASSIFICATION_TYPE": "U",
    "NORAD_CAT_ID": 63257,
    "ELEMENT_SET_NO": 999,
    "REV_AT_EPOCH": 7246,
    "BSTAR": 0.00021149042,
    "MEAN_MOTION_DOT": 0.00002631,
    "MEAN_MOTION_DDOT": 0
   }
  },
  {
   "norad": 64572,
   "name": "ICEYE-X52",
   "intl": "2025-135AW",
   "group": "sar",
   "gcat": {
    "class": "B",
    "category": "IMG-R",
    "owner": "ICEYE",
    "state": "FI"
   },
   "omm": {
    "OBJECT_NAME": "ICEYE-X52",
    "OBJECT_ID": "2025-135AW",
    "EPOCH": "2026-07-11T22:11:16.456128",
    "MEAN_MOTION": 14.93644889,
    "ECCENTRICITY": 0.00009867,
    "INCLINATION": 97.7766,
    "RA_OF_ASC_NODE": 306.9045,
    "ARG_OF_PERICENTER": 200.9078,
    "MEAN_ANOMALY": 159.2102,
    "EPHEMERIS_TYPE": 0,
    "CLASSIFICATION_TYPE": "U",
    "NORAD_CAT_ID": 64572,
    "ELEMENT_SET_NO": 999,
    "REV_AT_EPOCH": 5757,
    "BSTAR": 0.00012399879,
    "MEAN_MOTION_DOT": 0.00001253,
    "MEAN_MOTION_DDOT": 0
   }
  },
  {
   "norad": 64584,
   "name": "ICEYE-X53",
   "intl": "2025-135BJ",
   "group": "sar",
   "gcat": {
    "class": "B",
    "category": "IMG-R",
    "owner": "ICEYE",
    "state": "FI"
   },
   "omm": {
    "OBJECT_NAME": "ICEYE-X53",
    "OBJECT_ID": "2025-135BJ",
    "EPOCH": "2026-07-11T23:00:03.394368",
    "MEAN_MOTION": 15.00880871,
    "ECCENTRICITY": 0.00017755,
    "INCLINATION": 97.7364,
    "RA_OF_ASC_NODE": 309.6321,
    "ARG_OF_PERICENTER": 166.5404,
    "MEAN_ANOMALY": 193.5867,
    "EPHEMERIS_TYPE": 0,
    "CLASSIFICATION_TYPE": "U",
    "NORAD_CAT_ID": 64584,
    "ELEMENT_SET_NO": 999,
    "REV_AT_EPOCH": 5779,
    "BSTAR": 0.00001346376,
    "MEAN_MOTION_DOT": 0.00000111,
    "MEAN_MOTION_DDOT": 0
   }
  },
  {
   "norad": 64570,
   "name": "ICEYE-X54",
   "intl": "2025-135AU",
   "group": "sar",
   "gcat": {
    "class": "B",
    "category": "IMG-R",
    "owner": "ICEYE",
    "state": "FI"
   },
   "omm": {
    "OBJECT_NAME": "ICEYE-X54",
    "OBJECT_ID": "2025-135AU",
    "EPOCH": "2026-07-11T22:17:44.941632",
    "MEAN_MOTION": 14.94720698,
    "ECCENTRICITY": 0.00018249,
    "INCLINATION": 97.7743,
    "RA_OF_ASC_NODE": 307.1151,
    "ARG_OF_PERICENTER": 192.3506,
    "MEAN_ANOMALY": 167.767,
    "EPHEMERIS_TYPE": 0,
    "CLASSIFICATION_TYPE": "U",
    "NORAD_CAT_ID": 64570,
    "ELEMENT_SET_NO": 999,
    "REV_AT_EPOCH": 5759,
    "BSTAR": 0.0001873261,
    "MEAN_MOTION_DOT": 0.00001976,
    "MEAN_MOTION_DDOT": 0
   }
  },
  {
   "norad": 64581,
   "name": "ICEYE-X55",
   "intl": "2025-135BF",
   "group": "sar",
   "gcat": {
    "class": "B",
    "category": "IMG-R",
    "owner": "ICEYE",
    "state": "FI"
   },
   "omm": {
    "OBJECT_NAME": "ICEYE-X55",
    "OBJECT_ID": "2025-135BF",
    "EPOCH": "2026-07-11T22:12:21.644928",
    "MEAN_MOTION": 14.95349244,
    "ECCENTRICITY": 0.00018164,
    "INCLINATION": 97.7762,
    "RA_OF_ASC_NODE": 307.521,
    "ARG_OF_PERICENTER": 252.6603,
    "MEAN_ANOMALY": 107.4419,
    "EPHEMERIS_TYPE": 0,
    "CLASSIFICATION_TYPE": "U",
    "NORAD_CAT_ID": 64581,
    "ELEMENT_SET_NO": 999,
    "REV_AT_EPOCH": 5761,
    "BSTAR": 0.00019427986,
    "MEAN_MOTION_DOT": 0.00002085,
    "MEAN_MOTION_DDOT": 0
   }
  },
  {
   "norad": 64574,
   "name": "ICEYE-X56",
   "intl": "2025-135AY",
   "group": "sar",
   "gcat": {
    "class": "B",
    "category": "IMG-R",
    "owner": "ICEYE",
    "state": "FI"
   },
   "omm": {
    "OBJECT_NAME": "ICEYE-X56",
    "OBJECT_ID": "2025-135AY",
    "EPOCH": "2026-07-11T22:02:52.588608",
    "MEAN_MOTION": 14.95749044,
    "ECCENTRICITY": 0.00011329,
    "INCLINATION": 97.7762,
    "RA_OF_ASC_NODE": 307.6868,
    "ARG_OF_PERICENTER": 210.1508,
    "MEAN_ANOMALY": 149.9648,
    "EPHEMERIS_TYPE": 0,
    "CLASSIFICATION_TYPE": "U",
    "NORAD_CAT_ID": 64574,
    "ELEMENT_SET_NO": 999,
    "REV_AT_EPOCH": 5762,
    "BSTAR": 0.00016990922,
    "MEAN_MOTION_DOT": 0.00001835,
    "MEAN_MOTION_DDOT": 0
   }
  },
  {
   "norad": 64578,
   "name": "ICEYE-X57",
   "intl": "2025-135BC",
   "group": "sar",
   "gcat": {
    "class": "B",
    "category": "IMG-R",
    "owner": "ICEUS",
    "state": "US"
   },
   "omm": {
    "OBJECT_NAME": "ICEYE-X57",
    "OBJECT_ID": "2025-135BC",
    "EPOCH": "2026-07-11T22:25:38.635680",
    "MEAN_MOTION": 15.00867651,
    "ECCENTRICITY": 0.00021324,
    "INCLINATION": 97.8012,
    "RA_OF_ASC_NODE": 309.4771,
    "ARG_OF_PERICENTER": 59.6776,
    "MEAN_ANOMALY": 300.4659,
    "EPHEMERIS_TYPE": 0,
    "CLASSIFICATION_TYPE": "U",
    "NORAD_CAT_ID": 64578,
    "ELEMENT_SET_NO": 999,
    "REV_AT_EPOCH": 5773,
    "BSTAR": 0.00022300159,
    "MEAN_MOTION_DOT": 0.00002775,
    "MEAN_MOTION_DDOT": 0
   }
  },
  {
   "norad": 66751,
   "name": "ICEYE-X58",
   "intl": "2025-276CP",
   "group": "sar",
   "gcat": {
    "class": "B",
    "category": "IMG-R",
    "owner": "ICEYE",
    "state": "FI"
   },
   "omm": {
    "OBJECT_NAME": "ICEYE-X58",
    "OBJECT_ID": "2025-276CP",
    "EPOCH": "2026-07-11T17:14:21.491520",
    "MEAN_MOTION": 15.17296564,
    "ECCENTRICITY": 0.00019347,
    "INCLINATION": 97.4198,
    "RA_OF_ASC_NODE": 265.6682,
    "ARG_OF_PERICENTER": 232.1195,
    "MEAN_ANOMALY": 127.9863,
    "EPHEMERIS_TYPE": 0,
    "CLASSIFICATION_TYPE": "U",
    "NORAD_CAT_ID": 66751,
    "ELEMENT_SET_NO": 999,
    "REV_AT_EPOCH": 3413,
    "BSTAR": 0.000077252469,
    "MEAN_MOTION_DOT": 0.00001473,
    "MEAN_MOTION_DDOT": 0
   }
  },
  {
   "norad": 66752,
   "name": "ICEYE-X59",
   "intl": "2025-276CQ",
   "group": "sar",
   "gcat": {
    "class": "B",
    "category": "IMG-R",
    "owner": "ELKED",
    "state": "GR"
   },
   "omm": {
    "OBJECT_NAME": "ICEYE-X59",
    "OBJECT_ID": "2025-276CQ",
    "EPOCH": "2026-07-11T17:53:17.956608",
    "MEAN_MOTION": 15.00733485,
    "ECCENTRICITY": 0.0000713,
    "INCLINATION": 97.4383,
    "RA_OF_ASC_NODE": 262.9933,
    "ARG_OF_PERICENTER": 139.5292,
    "MEAN_ANOMALY": 220.5986,
    "EPHEMERIS_TYPE": 0,
    "CLASSIFICATION_TYPE": "U",
    "NORAD_CAT_ID": 66752,
    "ELEMENT_SET_NO": 999,
    "REV_AT_EPOCH": 3395,
    "BSTAR": 0.00023199924,
    "MEAN_MOTION_DOT": 0.00002884,
    "MEAN_MOTION_DDOT": 0
   }
  }
 ]
}
